ONEWEB-0387             
1 49313U 21090AL  25259.58160626  .00000060  00000+0  11665-3 0  9996
2 49313  87.9263 329.0230 0002205  97.5332 262.6052 13.20770590193701
ONEWEB-0388             
1 49314U 21090AM  25259.55758522 -.00000073  00000+0 -21360-3 0  9991
2 49314  87.9284 359.3942 0001925  95.6598 264.4754 13.19725378190328
ONEWEB-0389             
1 50469U 21132A   25259.52476284 -.00001302  00000+0 -33877-2 0  9991
2 50469  87.9052  60.3031 0002034  89.4074 270.7291 13.17656479182043
ONEWEB-0390             
1 50470U 21132B   25259.52645029 -.00001791  00000+0 -46471-2 0  9994
2 50470  87.9054  60.3085 0001761  99.8752 260.2578 13.17658472182047
ONEWEB-0391             
1 50471U 21132C   25259.45219429  .00000058  00000+0  11642-3 0  9994
2 50471  87.9046  60.3360 0002598  94.6989 265.4440 13.17647248182032
ONEWEB-0392             
1 50472U 21132D   25259.40662765 -.00000175  00000+0 -48391-3 0  9998
2 50472  87.9051  60.2906 0002154  91.0782 269.0596 13.17648961182062
ONEWEB-0393             
1 50473U 21132E   25259.15195035  .00000021  00000+0  22132-4 0  9996
2 50473  87.9053  60.3612 0001896  91.6426 268.4923 13.17646698182021
ONEWEB-0394             
1 50474U 21132F   25259.63891979 -.00000194  00000+0 -52441-3 0  9998
2 50474  87.9191  29.7563 0001884  94.3403 265.7945 13.18685431185544
